[{"OBJECT_NAME":"STARLINK-4255","OBJECT_ID":"2022-076T","EPOCH":"2026-03-09T19:06:22.614048","MEAN_MOTION":15.08841248,"ECCENTRICITY":0.00016088,"INCLINATION":53.217,"RA_OF_ASC_NODE":93.6442,"ARG_OF_PERICENTER":73.3549,"MEAN_ANOMALY":286.7619,"EPHEMERIS_TYPE":0,"CLASSIFICATION_TYPE":"U","NORAD_CAT_ID":53003,"ELEMENT_SET_NO":999,"REV_AT_EPOCH":20286,"BSTAR":4.757932e-5,"MEAN_MOTION_DOT":4.69e-6,"MEAN_MOTION_DDOT":0},{"OBJECT_NAME":"OBJECT M","OBJECT_ID":"2017-042M","EPOCH":"2026-03-09T22:38:39.337440","MEAN_MOTION":15.07991931,"ECCENTRICITY":0.0005117,"INCLINATION":97.4139,"RA_OF_ASC_NODE":234.2602,"ARG_OF_PERICENTER":83.1417,"MEAN_ANOMALY":277.0393,"EPHEMERIS_TYPE":0,"CLASSIFICATION_TYPE":"U","NORAD_CAT_ID":42836,"ELEMENT_SET_NO":999,"REV_AT_EPOCH":47205,"BSTAR":0.00047182615,"MEAN_MOTION_DOT":7.201e-5,"MEAN_MOTION_DDOT":0}]
